[Satellite]
VERSION=1.1
NAME=ORBITAL FACTORY 2
NICKNAME=ORBITAL FACTORY 2
TLE1=1 45113U 19071C   20157.42677614  .00001526  00000-0  58196-4 0  9991
TLE2=2 45113  51.6441  61.6442 0013308  17.1972 342.9458 15.33311825 19289
STATUS=0
